{"type":"FeatureCollection","features":[{"type":"Feature","geometry":{"type":"LineString","coordinates":[[106.857801,-6.213295],[106.858407,-6.213044]]},"properties":{"layer_id":"mesin_waktu","jenis":"proyek","nama":"Jalur Kereta Api Manggarai–Jatinegara","tahun":2029,"sumber":"OSM (target tahun: contoh)","atribut":{"status":"Dalam pembangunan"}}},{"type":"Feature","geometry":{"type":"LineString","coordinates":[[106.861027,-6.211887],[106.860457,-6.212128]]},"properties":{"layer_id":"mesin_waktu","jenis":"proyek","nama":"Jalur Kereta Api Manggarai–Jatinegara","tahun":2029,"sumber":"OSM (target tahun: contoh)","atribut":{"status":"Dalam pembangunan"}}},{"type":"Feature","geometry":{"type":"LineString","coordinates":[[106.860457,-6.212128],[106.858395,-6.213013]]},"properties":{"layer_id":"mesin_waktu","jenis":"proyek","nama":"Jalur Kereta Api Manggarai–Jatinegara","tahun":2029,"sumber":"OSM (target tahun: contoh)","atribut":{"status":"Dalam pembangunan"}}},{"type":"Feature","geometry":{"type":"LineString","coordinates":[[106.855783,-6.214092],[106.855527,-6.214205],[106.855056,-6.214341],[106.854571,-6.214395],[106.854108,-6.214366],[106.853707,-6.214273],[106.853342,-6.214133],[106.853037,-6.213962],[106.852633,-6.21364]]},"properties":{"layer_id":"mesin_waktu","jenis":"proyek","nama":"Jalur Kereta Api Manggarai–Jatinegara","tahun":2029,"sumber":"OSM (target tahun: contoh)","atribut":{"status":"Dalam pembangunan"}}},{"type":"Feature","geometry":{"type":"LineString","coordinates":[[106.852583,-6.213647],[106.853018,-6.213991],[106.853326,-6.214165],[106.853697,-6.214306],[106.854103,-6.2144],[106.854572,-6.21443],[106.855063,-6.214375],[106.855539,-6.214238],[106.855798,-6.214124]]},"properties":{"layer_id":"mesin_waktu","jenis":"proyek","nama":"Jalur Kereta Api Manggarai–Jatinegara","tahun":2029,"sumber":"OSM (target tahun: contoh)","atribut":{"status":"Dalam pembangunan"}}},{"type":"Feature","geometry":{"type":"LineString","coordinates":[[106.858407,-6.213044],[106.860472,-6.212157]]},"properties":{"layer_id":"mesin_waktu","jenis":"proyek","nama":"Jalur Kereta Api Manggarai–Jatinegara","tahun":2029,"sumber":"OSM (target tahun: contoh)","atribut":{"status":"Dalam pembangunan"}}},{"type":"Feature","geometry":{"type":"LineString","coordinates":[[106.860472,-6.212157],[106.861037,-6.211919]]},"properties":{"layer_id":"mesin_waktu","jenis":"proyek","nama":"Jalur Kereta Api Manggarai–Jatinegara","tahun":2029,"sumber":"OSM (target tahun: contoh)","atribut":{"status":"Dalam pembangunan"}}},{"type":"Feature","geometry":{"type":"LineString","coordinates":[[106.872307,-6.115227],[106.867248,-6.11939],[106.866143,-6.120196],[106.865473,-6.120633],[106.864652,-6.121064],[106.862694,-6.121905]]},"properties":{"layer_id":"mesin_waktu","jenis":"proyek","nama":"Jalan Tol Pelabuhan II","tahun":2027,"sumber":"OSM (target tahun: contoh)","atribut":{"status":"Dalam pembangunan"}}},{"type":"Feature","geometry":{"type":"LineString","coordinates":[[106.862427,-6.21153],[106.862535,-6.211532]]},"properties":{"layer_id":"mesin_waktu","jenis":"proyek","nama":"Jalur Kereta Api Manggarai–Jatinegara","tahun":2029,"sumber":"OSM (target tahun: contoh)","atribut":{"status":"Dalam pembangunan"}}},{"type":"Feature","geometry":{"type":"LineString","coordinates":[[106.861037,-6.211919],[106.861766,-6.211635],[106.86214,-6.211549],[106.862427,-6.21153]]},"properties":{"layer_id":"mesin_waktu","jenis":"proyek","nama":"Jalur Kereta Api Manggarai–Jatinegara","tahun":2029,"sumber":"OSM (target tahun: contoh)","atribut":{"status":"Dalam pembangunan"}}},{"type":"Feature","geometry":{"type":"LineString","coordinates":[[106.862526,-6.211495],[106.862417,-6.211493]]},"properties":{"layer_id":"mesin_waktu","jenis":"proyek","nama":"Jalur Kereta Api Manggarai–Jatinegara","tahun":2029,"sumber":"OSM (target tahun: contoh)","atribut":{"status":"Dalam pembangunan"}}},{"type":"Feature","geometry":{"type":"LineString","coordinates":[[106.862417,-6.211493],[106.862131,-6.211515],[106.861746,-6.211607],[106.861027,-6.211887]]},"properties":{"layer_id":"mesin_waktu","jenis":"proyek","nama":"Jalur Kereta Api Manggarai–Jatinegara","tahun":2029,"sumber":"OSM (target tahun: contoh)","atribut":{"status":"Dalam pembangunan"}}},{"type":"Feature","geometry":{"type":"LineString","coordinates":[[106.857886,-6.124011],[106.853017,-6.126266],[106.852233,-6.126546],[106.850739,-6.126954],[106.847371,-6.127554],[106.832116,-6.130448],[106.82487,-6.131551],[106.821037,-6.132224],[106.820269,-6.132278],[106.819605,-6.132163],[106.818685,-6.131842],[106.816245,-6.13037],[106.81585,-6.130178],[106.815046,-6.129884],[106.814188,-6.12974],[106.813738,-6.129719],[106.813286,-6.129776],[106.809507,-6.130727],[106.80587,-6.131692],[106.804811,-6.131927],[106.802819,-6.132213]]},"properties":{"layer_id":"mesin_waktu","jenis":"proyek","nama":"Jalan Tol Pelabuhan II","tahun":2027,"sumber":"OSM (target tahun: contoh)","atribut":{"status":"Dalam pembangunan"}}},{"type":"Feature","geometry":{"type":"LineString","coordinates":[[106.822949,-6.191027],[106.822926,-6.190169],[106.82295,-6.188471],[106.823105,-6.185591],[106.822864,-6.181045],[106.822884,-6.180803],[106.823265,-6.178944],[106.823302,-6.17857],[106.823346,-6.174097],[106.82334,-6.17334],[106.823272,-6.172878],[106.823074,-6.172282],[106.822836,-6.171801],[106.822403,-6.171311],[106.822121,-6.171129],[106.821833,-6.170852],[106.821632,-6.170567],[106.821434,-6.170182],[106.820919,-6.168135],[106.820587,-6.167166],[106.818483,-6.157779],[106.818191,-6.156332],[106.818054,-6.155308],[106.817983,-6.154233],[106.817862,-6.153575],[106.816397,-6.147471],[106.816064,-6.146795],[106.81594,-6.146425],[106.814135,-6.139648],[106.813844,-6.138663],[106.813791,-6.138037],[106.813879,-6.137652]]},"properties":{"layer_id":"mesin_waktu","jenis":"proyek","nama":"MRT Jakarta Jalur Utara-Selatan","tahun":2029,"sumber":"OSM (target tahun: contoh)","atribut":{"status":"Dalam pembangunan"}}},{"type":"Feature","geometry":{"type":"LineString","coordinates":[[106.858395,-6.213013],[106.857792,-6.213267]]},"properties":{"layer_id":"mesin_waktu","jenis":"proyek","nama":"Jalur Kereta Api Manggarai–Jatinegara","tahun":2029,"sumber":"OSM (target tahun: contoh)","atribut":{"status":"Dalam pembangunan"}}},{"type":"Feature","geometry":{"type":"LineString","coordinates":[[106.782752,-6.389595],[106.782713,-6.390826],[106.782814,-6.392169],[106.783062,-6.393559],[106.783481,-6.394936]]},"properties":{"layer_id":"mesin_waktu","jenis":"proyek","nama":"Jalan Tol Antasari–Depok","tahun":2026,"sumber":"OSM (target tahun: contoh)","atribut":{"status":"Dalam pembangunan"}}},{"type":"Feature","geometry":{"type":"LineString","coordinates":[[106.783365,-6.394978],[106.782965,-6.393655],[106.782678,-6.392098],[106.782582,-6.390974],[106.782598,-6.390017]]},"properties":{"layer_id":"mesin_waktu","jenis":"proyek","nama":"Jalan Tol Antasari–Depok","tahun":2026,"sumber":"OSM (target tahun: contoh)","atribut":{"status":"Dalam pembangunan"}}},{"type":"Feature","geometry":{"type":"LineString","coordinates":[[106.895993,-6.107615],[106.893521,-6.107651]]},"properties":{"layer_id":"mesin_waktu","jenis":"proyek","nama":"Jalan Tol Pelabuhan II","tahun":2027,"sumber":"OSM (target tahun: contoh)","atribut":{"status":"Dalam pembangunan"}}},{"type":"Feature","geometry":{"type":"LineString","coordinates":[[106.89352,-6.107543],[106.896034,-6.107499],[106.896901,-6.10753],[106.899102,-6.107745]]},"properties":{"layer_id":"mesin_waktu","jenis":"proyek","nama":"Jalan Tol Pelabuhan II","tahun":2027,"sumber":"OSM (target tahun: contoh)","atribut":{"status":"Dalam pembangunan"}}},{"type":"Feature","geometry":{"type":"LineString","coordinates":[[107.205702,-6.428994],[107.208733,-6.429064],[107.223572,-6.430355],[107.241697,-6.4325],[107.244017,-6.432569],[107.246494,-6.432465],[107.248908,-6.432291],[107.256804,-6.431344],[107.274157,-6.42949],[107.277918,-6.429169],[107.28024,-6.429128],[107.290431,-6.429443],[107.29185,-6.42964],[107.293954,-6.430068],[107.298735,-6.431312],[107.300008,-6.431547],[107.301311,-6.431568],[107.304255,-6.431138]]},"properties":{"layer_id":"mesin_waktu","jenis":"proyek","nama":"Jalan Tol Jakarta–Cikampek II","tahun":2030,"sumber":"OSM (target tahun: contoh)","atribut":{"status":"Dalam pembangunan"}}},{"type":"Feature","geometry":{"type":"LineString","coordinates":[[107.304448,-6.431297],[107.301337,-6.431744],[107.299991,-6.431776],[107.298684,-6.431532],[107.293904,-6.430289],[107.291811,-6.429863],[107.29041,-6.429669],[107.280239,-6.429354],[107.27793,-6.429395],[107.274178,-6.429716],[107.25683,-6.431569],[107.24893,-6.432516],[107.246508,-6.432691],[107.244019,-6.432796],[107.24168,-6.432726],[107.223549,-6.43058],[107.208716,-6.429289],[107.205729,-6.42913]]},"properties":{"layer_id":"mesin_waktu","jenis":"proyek","nama":"Jalan Tol Jakarta–Cikampek II","tahun":2030,"sumber":"OSM (target tahun: contoh)","atribut":{"status":"Dalam pembangunan"}}},{"type":"Feature","geometry":{"type":"LineString","coordinates":[[106.767953,-6.534301],[106.767391,-6.533303],[106.76724,-6.532958],[106.766609,-6.53097]]},"properties":{"layer_id":"mesin_waktu","jenis":"proyek","nama":"Jalan Tol Lingkar Luar Bogor","tahun":2026,"sumber":"OSM (target tahun: contoh)","atribut":{"status":"Dalam pembangunan"}}},{"type":"Feature","geometry":{"type":"LineString","coordinates":[[106.766693,-6.530952],[106.767244,-6.53278],[106.76746,-6.533265],[106.768014,-6.534251]]},"properties":{"layer_id":"mesin_waktu","jenis":"proyek","nama":"Jalan Tol Lingkar Luar Bogor","tahun":2026,"sumber":"OSM (target tahun: contoh)","atribut":{"status":"Dalam pembangunan"}}},{"type":"Feature","geometry":{"type":"LineString","coordinates":[[106.896366,-6.155245],[106.897933,-6.156141]]},"properties":{"layer_id":"mesin_waktu","jenis":"proyek","nama":"Jalan Tol Sunter–Pulo Gebang","tahun":2026,"sumber":"OSM (target tahun: contoh)","atribut":{"status":"Dalam pembangunan"}}},{"type":"Feature","geometry":{"type":"LineString","coordinates":[[106.900695,-6.15783],[106.897912,-6.156266],[106.896317,-6.155331]]},"properties":{"layer_id":"mesin_waktu","jenis":"proyek","nama":"Jalan Tol Sunter–Pulo Gebang","tahun":2026,"sumber":"OSM (target tahun: contoh)","atribut":{"status":"Dalam pembangunan"}}},{"type":"Feature","geometry":{"type":"LineString","coordinates":[[106.990717,-6.24745],[106.993877,-6.246649],[106.994446,-6.24653],[106.995069,-6.246504],[106.995752,-6.24654],[106.996214,-6.246617],[106.996622,-6.246744],[106.997053,-6.246964]]},"properties":{"layer_id":"mesin_waktu","jenis":"proyek","nama":"Jalan tol dalam pembangunan","tahun":2027,"sumber":"OSM (target tahun: contoh)","atribut":{"status":"Dalam pembangunan"}}},{"type":"Feature","geometry":{"type":"LineString","coordinates":[[106.997,-6.247083],[106.99655,-6.246857],[106.99612,-6.246728],[106.995738,-6.246643],[106.995315,-6.246593],[106.994874,-6.246593],[106.99446,-6.246633],[106.993576,-6.246813],[106.991532,-6.247395]]},"properties":{"layer_id":"mesin_waktu","jenis":"proyek","nama":"Jalan Tol Bekasi–Cawang–Kampung Melayu","tahun":2030,"sumber":"OSM (target tahun: contoh)","atribut":{"status":"Dalam pembangunan"}}},{"type":"Feature","geometry":{"type":"LineString","coordinates":[[106.687464,-6.066775],[106.684959,-6.064836],[106.684253,-6.064214],[106.683503,-6.063486],[106.681253,-6.060774],[106.680571,-6.060104],[106.679859,-6.059483],[106.67728,-6.057604]]},"properties":{"layer_id":"mesin_waktu","jenis":"proyek","nama":"Jalan Tol Kamal–Balaraja","tahun":2029,"sumber":"OSM (target tahun: contoh)","atribut":{"status":"Dalam pembangunan"}}},{"type":"Feature","geometry":{"type":"LineString","coordinates":[[106.677388,-6.057457],[106.679974,-6.059341],[106.680696,-6.059971],[106.681388,-6.060651],[106.683638,-6.063363],[106.684377,-6.064081],[106.685076,-6.064697],[106.687548,-6.066658]]},"properties":{"layer_id":"mesin_waktu","jenis":"proyek","nama":"Jalan Tol Kamal–Balaraja","tahun":2029,"sumber":"OSM (target tahun: contoh)","atribut":{"status":"Dalam pembangunan"}}},{"type":"Feature","geometry":{"type":"LineString","coordinates":[[106.848703,-6.208473],[106.849501,-6.209607],[106.852418,-6.213409],[106.852633,-6.21364]]},"properties":{"layer_id":"mesin_waktu","jenis":"proyek","nama":"Jalur Kereta Api Manggarai–Jatinegara","tahun":2029,"sumber":"OSM (target tahun: contoh)","atribut":{"status":"Dalam pembangunan"}}},{"type":"Feature","geometry":{"type":"LineString","coordinates":[[106.848964,-6.208908],[106.849472,-6.209628],[106.852393,-6.213439],[106.852583,-6.213647]]},"properties":{"layer_id":"mesin_waktu","jenis":"proyek","nama":"Jalur Kereta Api Manggarai–Jatinegara","tahun":2029,"sumber":"OSM (target tahun: contoh)","atribut":{"status":"Dalam pembangunan"}}},{"type":"Feature","geometry":{"type":"LineString","coordinates":[[106.865299,-6.213174],[106.864318,-6.212277],[106.863909,-6.211982],[106.863555,-6.211781]]},"properties":{"layer_id":"mesin_waktu","jenis":"proyek","nama":"Jalur Kereta Api Manggarai–Jatinegara","tahun":2029,"sumber":"OSM (target tahun: contoh)","atribut":{"status":"Dalam pembangunan"}}},{"type":"Feature","geometry":{"type":"LineString","coordinates":[[106.863539,-6.211813],[106.863882,-6.212005],[106.8643,-6.212304],[106.865274,-6.213203]]},"properties":{"layer_id":"mesin_waktu","jenis":"proyek","nama":"Jalur Kereta Api Manggarai–Jatinegara","tahun":2029,"sumber":"OSM (target tahun: contoh)","atribut":{"status":"Dalam pembangunan"}}},{"type":"Feature","geometry":{"type":"LineString","coordinates":[[106.863555,-6.211781],[106.862989,-6.211565],[106.862526,-6.211495]]},"properties":{"layer_id":"mesin_waktu","jenis":"proyek","nama":"Jalur Kereta Api Manggarai–Jatinegara","tahun":2029,"sumber":"OSM (target tahun: contoh)","atribut":{"status":"Dalam pembangunan"}}},{"type":"Feature","geometry":{"type":"LineString","coordinates":[[106.862535,-6.211532],[106.862977,-6.211595],[106.863539,-6.211813]]},"properties":{"layer_id":"mesin_waktu","jenis":"proyek","nama":"Jalur Kereta Api Manggarai–Jatinegara","tahun":2029,"sumber":"OSM (target tahun: contoh)","atribut":{"status":"Dalam pembangunan"}}},{"type":"Feature","geometry":{"type":"LineString","coordinates":[[107.113366,-6.412698],[107.11427,-6.413637],[107.115187,-6.414517],[107.116185,-6.415365],[107.116956,-6.415973],[107.118161,-6.41684],[107.120008,-6.417963],[107.121706,-6.418826],[107.123154,-6.419456],[107.124572,-6.419982],[107.125827,-6.420365],[107.128182,-6.420942],[107.130567,-6.421277],[107.142022,-6.422047]]},"properties":{"layer_id":"mesin_waktu","jenis":"proyek","nama":"Jalan Tol Jakarta–Cikampek II","tahun":2030,"sumber":"OSM (target tahun: contoh)","atribut":{"status":"Dalam pembangunan"}}},{"type":"Feature","geometry":{"type":"LineString","coordinates":[[107.141928,-6.422167],[107.130555,-6.421393],[107.128159,-6.421057],[107.125794,-6.420477],[107.124531,-6.420092],[107.123118,-6.419568],[107.121656,-6.418932],[107.119955,-6.418068],[107.118097,-6.416938],[107.116878,-6.416061],[107.115092,-6.414618],[107.114157,-6.413753],[107.113231,-6.412823]]},"properties":{"layer_id":"mesin_waktu","jenis":"proyek","nama":"Jalan Tol Jakarta–Cikampek II","tahun":2030,"sumber":"OSM (target tahun: contoh)","atribut":{"status":"Dalam pembangunan"}}},{"type":"Feature","geometry":{"type":"LineString","coordinates":[[107.038272,-6.356372],[107.041206,-6.358034],[107.056702,-6.366522],[107.060695,-6.368869],[107.064244,-6.371049],[107.069299,-6.374993]]},"properties":{"layer_id":"mesin_waktu","jenis":"proyek","nama":"Jalan Tol Jakarta–Cikampek II","tahun":2030,"sumber":"OSM (target tahun: contoh)","atribut":{"status":"Dalam pembangunan"}}},{"type":"Feature","geometry":{"type":"LineString","coordinates":[[107.069257,-6.375189],[107.067711,-6.373903],[107.064171,-6.371152],[107.06063,-6.368977],[107.056639,-6.366631],[107.038313,-6.356581]]},"properties":{"layer_id":"mesin_waktu","jenis":"proyek","nama":"Jalan Tol Jakarta–Cikampek II","tahun":2030,"sumber":"OSM (target tahun: contoh)","atribut":{"status":"Dalam pembangunan"}}},{"type":"Feature","geometry":{"type":"LineString","coordinates":[[106.823039,-6.191026],[106.823059,-6.188757],[106.823207,-6.185971],[106.823218,-6.185081],[106.822986,-6.181039],[106.823009,-6.180782],[106.823442,-6.178955],[106.823454,-6.178789],[106.823543,-6.175332],[106.82354,-6.174101],[106.823451,-6.172813],[106.823173,-6.172047],[106.823045,-6.171785],[106.822881,-6.171543],[106.82271,-6.171329],[106.822093,-6.170908],[106.821978,-6.170795],[106.821751,-6.170531],[106.821516,-6.170135],[106.821063,-6.168367],[106.820626,-6.167151],[106.818498,-6.157778],[106.818203,-6.156318],[106.818072,-6.155294],[106.81801,-6.154355],[106.817894,-6.153635],[106.816416,-6.147465],[106.816216,-6.147035],[106.814871,-6.142287],[106.813879,-6.138649],[106.813838,-6.138448],[106.813822,-6.138044],[106.813907,-6.137667]]},"properties":{"layer_id":"mesin_waktu","jenis":"proyek","nama":"MRT Jakarta Jalur Utara-Selatan","tahun":2029,"sumber":"OSM (target tahun: contoh)","atribut":{"status":"Dalam pembangunan"}}},{"type":"Feature","geometry":{"type":"LineString","coordinates":[[106.848887,-6.208617],[106.849811,-6.209613],[106.850731,-6.210794],[106.851118,-6.211306],[106.851716,-6.212351]]},"properties":{"layer_id":"mesin_waktu","jenis":"proyek","nama":"Jalur rel dalam pembangunan","tahun":2026,"sumber":"OSM (target tahun: contoh)","atribut":{"status":"Dalam pembangunan"}}},{"type":"Feature","geometry":{"type":"LineString","coordinates":[[106.852633,-6.21364],[106.850396,-6.210579],[106.848887,-6.208617]]},"properties":{"layer_id":"mesin_waktu","jenis":"proyek","nama":"Jalur Kereta Api Manggarai–Jatinegara","tahun":2029,"sumber":"OSM (target tahun: contoh)","atribut":{"status":"Dalam pembangunan"}}},{"type":"Feature","geometry":{"type":"LineString","coordinates":[[106.849698,-6.209593],[106.85043,-6.210554],[106.852278,-6.213163]]},"properties":{"layer_id":"mesin_waktu","jenis":"proyek","nama":"Jalur KA Manggarai-Jatinegara","tahun":2027,"sumber":"OSM (target tahun: contoh)","atribut":{"status":"Dalam pembangunan"}}},{"type":"Feature","geometry":{"type":"LineString","coordinates":[[106.852393,-6.213439],[106.851948,-6.212963],[106.849469,-6.209794],[106.848964,-6.208908]]},"properties":{"layer_id":"mesin_waktu","jenis":"proyek","nama":"Jalur rel dalam pembangunan","tahun":2030,"sumber":"OSM (target tahun: contoh)","atribut":{"status":"Dalam pembangunan"}}},{"type":"Feature","geometry":{"type":"LineString","coordinates":[[106.857792,-6.213267],[106.855783,-6.214092]]},"properties":{"layer_id":"mesin_waktu","jenis":"proyek","nama":"Jalur Kereta Api Manggarai–Jatinegara","tahun":2029,"sumber":"OSM (target tahun: contoh)","atribut":{"status":"Dalam pembangunan"}}},{"type":"Feature","geometry":{"type":"LineString","coordinates":[[106.857801,-6.213295],[106.855798,-6.214124]]},"properties":{"layer_id":"mesin_waktu","jenis":"proyek","nama":"Jalur Kereta Api Manggarai–Jatinegara","tahun":2029,"sumber":"OSM (target tahun: contoh)","atribut":{"status":"Dalam pembangunan"}}},{"type":"Feature","geometry":{"type":"LineString","coordinates":[[107.018652,-6.346432],[107.024664,-6.349643],[107.026125,-6.350352]]},"properties":{"layer_id":"mesin_waktu","jenis":"proyek","nama":"Jalan Tol Jakarta–Cikampek II","tahun":2030,"sumber":"OSM (target tahun: contoh)","atribut":{"status":"Dalam pembangunan"}}},{"type":"Feature","geometry":{"type":"LineString","coordinates":[[107.018516,-6.346564],[107.016098,-6.345277],[107.012501,-6.34345]]},"properties":{"layer_id":"mesin_waktu","jenis":"proyek","nama":"Jalan Tol Jakarta–Cikampek II","tahun":2030,"sumber":"OSM (target tahun: contoh)","atribut":{"status":"Dalam pembangunan"}}},{"type":"Feature","geometry":{"type":"LineString","coordinates":[[107.028906,-6.351662],[107.02918,-6.351791]]},"properties":{"layer_id":"mesin_waktu","jenis":"proyek","nama":"Jalan Tol Jakarta–Cikampek II","tahun":2030,"sumber":"OSM (target tahun: contoh)","atribut":{"status":"Dalam pembangunan"}}},{"type":"Feature","geometry":{"type":"LineString","coordinates":[[107.02903,-6.351909],[107.028759,-6.351781]]},"properties":{"layer_id":"mesin_waktu","jenis":"proyek","nama":"Jalan Tol Jakarta–Cikampek II","tahun":2030,"sumber":"OSM (target tahun: contoh)","atribut":{"status":"Dalam pembangunan"}}},{"type":"Feature","geometry":{"type":"LineString","coordinates":[[107.027722,-6.351104],[107.028906,-6.351662]]},"properties":{"layer_id":"mesin_waktu","jenis":"proyek","nama":"Jalan Tol Jakarta–Cikampek II","tahun":2030,"sumber":"OSM (target tahun: contoh)","atribut":{"status":"Dalam pembangunan"}}},{"type":"Feature","geometry":{"type":"LineString","coordinates":[[107.027281,-6.351085],[107.026051,-6.350506]]},"properties":{"layer_id":"mesin_waktu","jenis":"proyek","nama":"Jalan Tol Jakarta–Cikampek II","tahun":2030,"sumber":"OSM (target tahun: contoh)","atribut":{"status":"Dalam pembangunan"}}},{"type":"Feature","geometry":{"type":"LineString","coordinates":[[107.026125,-6.350352],[107.027443,-6.350972]]},"properties":{"layer_id":"mesin_waktu","jenis":"proyek","nama":"Jalan Tol Jakarta–Cikampek II","tahun":2030,"sumber":"OSM (target tahun: contoh)","atribut":{"status":"Dalam pembangunan"}}},{"type":"Feature","geometry":{"type":"LineString","coordinates":[[107.027536,-6.351205],[107.027281,-6.351085]]},"properties":{"layer_id":"mesin_waktu","jenis":"proyek","nama":"Jalan Tol Jakarta–Cikampek II","tahun":2030,"sumber":"OSM (target tahun: contoh)","atribut":{"status":"Dalam pembangunan"}}},{"type":"Feature","geometry":{"type":"LineString","coordinates":[[107.028759,-6.351781],[107.027536,-6.351205]]},"properties":{"layer_id":"mesin_waktu","jenis":"proyek","nama":"Jalan Tol Jakarta–Cikampek II","tahun":2030,"sumber":"OSM (target tahun: contoh)","atribut":{"status":"Dalam pembangunan"}}},{"type":"Feature","geometry":{"type":"LineString","coordinates":[[107.027443,-6.350972],[107.027722,-6.351104]]},"properties":{"layer_id":"mesin_waktu","jenis":"proyek","nama":"Jalan Tol Jakarta–Cikampek II","tahun":2030,"sumber":"OSM (target tahun: contoh)","atribut":{"status":"Dalam pembangunan"}}},{"type":"Feature","geometry":{"type":"LineString","coordinates":[[107.012589,-6.343298],[107.016185,-6.345115],[107.018652,-6.346432]]},"properties":{"layer_id":"mesin_waktu","jenis":"proyek","nama":"Jalan Tol Jakarta–Cikampek II","tahun":2030,"sumber":"OSM (target tahun: contoh)","atribut":{"status":"Dalam pembangunan"}}},{"type":"Feature","geometry":{"type":"LineString","coordinates":[[107.026051,-6.350506],[107.024585,-6.349795],[107.018516,-6.346564]]},"properties":{"layer_id":"mesin_waktu","jenis":"proyek","nama":"Jalan Tol Jakarta–Cikampek II","tahun":2030,"sumber":"OSM (target tahun: contoh)","atribut":{"status":"Dalam pembangunan"}}},{"type":"Feature","geometry":{"type":"LineString","coordinates":[[106.703845,-6.072689],[106.701621,-6.07428],[106.701194,-6.074545],[106.700731,-6.074771],[106.700292,-6.074937],[106.69984,-6.075061],[106.699344,-6.075141],[106.698315,-6.075157],[106.697387,-6.074989],[106.696943,-6.074835],[106.696456,-6.074629],[106.695445,-6.074015],[106.694697,-6.073487],[106.69397,-6.072906],[106.692986,-6.072],[106.689433,-6.068308],[106.688897,-6.06784],[106.688281,-6.067359],[106.687464,-6.066775]]},"properties":{"layer_id":"mesin_waktu","jenis":"proyek","nama":"Jalan Tol Kamal–Balaraja","tahun":2029,"sumber":"OSM (target tahun: contoh)","atribut":{"status":"Dalam pembangunan"}}},{"type":"Feature","geometry":{"type":"LineString","coordinates":[[106.598496,-6.32248],[106.595125,-6.322544],[106.59351,-6.322538]]},"properties":{"layer_id":"mesin_waktu","jenis":"proyek","nama":"Jalan Tol Serpong–Balaraja","tahun":2030,"sumber":"OSM (target tahun: contoh)","atribut":{"status":"Dalam pembangunan"}}},{"type":"Feature","geometry":{"type":"LineString","coordinates":[[106.593498,-6.322389],[106.595505,-6.322389],[106.598496,-6.322323]]},"properties":{"layer_id":"mesin_waktu","jenis":"proyek","nama":"Jalan Tol Serpong–Balaraja","tahun":2030,"sumber":"OSM (target tahun: contoh)","atribut":{"status":"Dalam pembangunan"}}},{"type":"Feature","geometry":{"type":"LineString","coordinates":[[106.843526,-6.655253],[106.842489,-6.655978],[106.841722,-6.656463],[106.841534,-6.656682],[106.841462,-6.656866],[106.841459,-6.657004],[106.841494,-6.657105],[106.843067,-6.658091]]},"properties":{"layer_id":"mesin_waktu","jenis":"proyek","nama":"Jalan tol dalam pembangunan","tahun":2027,"sumber":"OSM (target tahun: contoh)","atribut":{"status":"Dalam pembangunan"}}},{"type":"Feature","geometry":{"type":"LineString","coordinates":[[106.860769,-6.122688],[106.857886,-6.124011]]},"properties":{"layer_id":"mesin_waktu","jenis":"proyek","nama":"Jalan Tol Pelabuhan II","tahun":2027,"sumber":"OSM (target tahun: contoh)","atribut":{"status":"Dalam pembangunan"}}},{"type":"Feature","geometry":{"type":"LineString","coordinates":[[106.862694,-6.121905],[106.861577,-6.122326],[106.860769,-6.122688]]},"properties":{"layer_id":"mesin_waktu","jenis":"proyek","nama":"Jalan Tol Pelabuhan II","tahun":2027,"sumber":"OSM (target tahun: contoh)","atribut":{"status":"Dalam pembangunan"}}},{"type":"Feature","geometry":{"type":"LineString","coordinates":[[107.037918,-6.356172],[107.038272,-6.356372]]},"properties":{"layer_id":"mesin_waktu","jenis":"proyek","nama":"Jalan Tol Jakarta–Cikampek II","tahun":2030,"sumber":"OSM (target tahun: contoh)","atribut":{"status":"Dalam pembangunan"}}},{"type":"Feature","geometry":{"type":"LineString","coordinates":[[107.036206,-6.355202],[107.037918,-6.356172]]},"properties":{"layer_id":"mesin_waktu","jenis":"proyek","nama":"Jalan Tol Jakarta–Cikampek II","tahun":2030,"sumber":"OSM (target tahun: contoh)","atribut":{"status":"Dalam pembangunan"}}},{"type":"Feature","geometry":{"type":"LineString","coordinates":[[107.037959,-6.35638],[107.036185,-6.355372]]},"properties":{"layer_id":"mesin_waktu","jenis":"proyek","nama":"Jalan Tol Jakarta–Cikampek II","tahun":2030,"sumber":"OSM (target tahun: contoh)","atribut":{"status":"Dalam pembangunan"}}},{"type":"Feature","geometry":{"type":"LineString","coordinates":[[107.038313,-6.356581],[107.037959,-6.35638]]},"properties":{"layer_id":"mesin_waktu","jenis":"proyek","nama":"Jalan Tol Jakarta–Cikampek II","tahun":2030,"sumber":"OSM (target tahun: contoh)","atribut":{"status":"Dalam pembangunan"}}},{"type":"Feature","geometry":{"type":"LineString","coordinates":[[107.035897,-6.355226],[107.02903,-6.351909]]},"properties":{"layer_id":"mesin_waktu","jenis":"proyek","nama":"Jalan Tol Jakarta–Cikampek II","tahun":2030,"sumber":"OSM (target tahun: contoh)","atribut":{"status":"Dalam pembangunan"}}},{"type":"Feature","geometry":{"type":"LineString","coordinates":[[107.036185,-6.355372],[107.035897,-6.355226]]},"properties":{"layer_id":"mesin_waktu","jenis":"proyek","nama":"Jalan Tol Jakarta–Cikampek II","tahun":2030,"sumber":"OSM (target tahun: contoh)","atribut":{"status":"Dalam pembangunan"}}},{"type":"Feature","geometry":{"type":"LineString","coordinates":[[107.035907,-6.35504],[107.036206,-6.355202]]},"properties":{"layer_id":"mesin_waktu","jenis":"proyek","nama":"Jalan Tol Jakarta–Cikampek II","tahun":2030,"sumber":"OSM (target tahun: contoh)","atribut":{"status":"Dalam pembangunan"}}},{"type":"Feature","geometry":{"type":"LineString","coordinates":[[107.02918,-6.351791],[107.035907,-6.35504]]},"properties":{"layer_id":"mesin_waktu","jenis":"proyek","nama":"Jalan Tol Jakarta–Cikampek II","tahun":2030,"sumber":"OSM (target tahun: contoh)","atribut":{"status":"Dalam pembangunan"}}},{"type":"Feature","geometry":{"type":"LineString","coordinates":[[107.098936,-6.397374],[107.097733,-6.396239],[107.096338,-6.395172],[107.094495,-6.393959],[107.091143,-6.39193],[107.088854,-6.3906]]},"properties":{"layer_id":"mesin_waktu","jenis":"proyek","nama":"Jalan Tol Jakarta–Cikampek II","tahun":2030,"sumber":"OSM (target tahun: contoh)","atribut":{"status":"Dalam pembangunan"}}},{"type":"Feature","geometry":{"type":"LineString","coordinates":[[107.113231,-6.412823],[107.111198,-6.4106]]},"properties":{"layer_id":"mesin_waktu","jenis":"proyek","nama":"Jalan Tol Jakarta–Cikampek II","tahun":2030,"sumber":"OSM (target tahun: contoh)","atribut":{"status":"Dalam pembangunan"}}},{"type":"Feature","geometry":{"type":"LineString","coordinates":[[107.111365,-6.410546],[107.113366,-6.412698]]},"properties":{"layer_id":"mesin_waktu","jenis":"proyek","nama":"Jalan Tol Jakarta–Cikampek II","tahun":2030,"sumber":"OSM (target tahun: contoh)","atribut":{"status":"Dalam pembangunan"}}},{"type":"Feature","geometry":{"type":"LineString","coordinates":[[107.089022,-6.390486],[107.092558,-6.392615],[107.094559,-6.39386],[107.096407,-6.395077],[107.097812,-6.396151],[107.099054,-6.397255]]},"properties":{"layer_id":"mesin_waktu","jenis":"proyek","nama":"Jalan Tol Jakarta–Cikampek II","tahun":2030,"sumber":"OSM (target tahun: contoh)","atribut":{"status":"Dalam pembangunan"}}},{"type":"Feature","geometry":{"type":"LineString","coordinates":[[107.0871,-6.389531],[107.084797,-6.38787],[107.078835,-6.383267]]},"properties":{"layer_id":"mesin_waktu","jenis":"proyek","nama":"Jalan Tol Jakarta–Cikampek II","tahun":2030,"sumber":"OSM (target tahun: contoh)","atribut":{"status":"Dalam pembangunan"}}},{"type":"Feature","geometry":{"type":"LineString","coordinates":[[107.088854,-6.3906],[107.0871,-6.389531]]},"properties":{"layer_id":"mesin_waktu","jenis":"proyek","nama":"Jalan Tol Jakarta–Cikampek II","tahun":2030,"sumber":"OSM (target tahun: contoh)","atribut":{"status":"Dalam pembangunan"}}},{"type":"Feature","geometry":{"type":"LineString","coordinates":[[107.087171,-6.389369],[107.089022,-6.390486]]},"properties":{"layer_id":"mesin_waktu","jenis":"proyek","nama":"Jalan Tol Jakarta–Cikampek II","tahun":2030,"sumber":"OSM (target tahun: contoh)","atribut":{"status":"Dalam pembangunan"}}},{"type":"Feature","geometry":{"type":"LineString","coordinates":[[107.078909,-6.383166],[107.084868,-6.387772],[107.087171,-6.389369]]},"properties":{"layer_id":"mesin_waktu","jenis":"proyek","nama":"Jalan Tol Jakarta–Cikampek II","tahun":2030,"sumber":"OSM (target tahun: contoh)","atribut":{"status":"Dalam pembangunan"}}},{"type":"Feature","geometry":{"type":"LineString","coordinates":[[106.849698,-6.209593],[106.848887,-6.208617]]},"properties":{"layer_id":"mesin_waktu","jenis":"proyek","nama":"Jalur rel dalam pembangunan","tahun":2028,"sumber":"OSM (target tahun: contoh)","atribut":{"status":"Dalam pembangunan"}}},{"type":"Feature","geometry":{"type":"LineString","coordinates":[[107.154308,-6.42287],[107.161409,-6.423333],[107.163719,-6.423641],[107.184417,-6.427701],[107.187982,-6.428456],[107.188899,-6.428612],[107.189649,-6.428676],[107.191342,-6.428729],[107.193391,-6.428641],[107.195404,-6.428614],[107.204301,-6.428937]]},"properties":{"layer_id":"mesin_waktu","jenis":"proyek","nama":"Jalan Tol Jakarta–Cikampek II","tahun":2030,"sumber":"OSM (target tahun: contoh)","atribut":{"status":"Dalam pembangunan"}}},{"type":"Feature","geometry":{"type":"LineString","coordinates":[[107.204334,-6.429074],[107.195402,-6.428749],[107.193396,-6.428776],[107.191345,-6.428863],[107.189641,-6.42881],[107.188881,-6.428746],[107.187957,-6.428589],[107.18439,-6.427833],[107.163696,-6.423774],[107.161396,-6.423467],[107.154338,-6.423007]]},"properties":{"layer_id":"mesin_waktu","jenis":"proyek","nama":"Jalan Tol Jakarta–Cikampek II","tahun":2030,"sumber":"OSM (target tahun: contoh)","atribut":{"status":"Dalam pembangunan"}}},{"type":"Feature","geometry":{"type":"LineString","coordinates":[[107.153186,-6.422799],[107.154308,-6.42287]]},"properties":{"layer_id":"mesin_waktu","jenis":"proyek","nama":"Jalan Tol Jakarta–Cikampek II","tahun":2030,"sumber":"OSM (target tahun: contoh)","atribut":{"status":"Dalam pembangunan"}}},{"type":"Feature","geometry":{"type":"LineString","coordinates":[[107.154338,-6.423007],[107.153214,-6.422935]]},"properties":{"layer_id":"mesin_waktu","jenis":"proyek","nama":"Jalan Tol Jakarta–Cikampek II","tahun":2030,"sumber":"OSM (target tahun: contoh)","atribut":{"status":"Dalam pembangunan"}}},{"type":"Feature","geometry":{"type":"LineString","coordinates":[[107.204301,-6.428937],[107.205702,-6.428994]]},"properties":{"layer_id":"mesin_waktu","jenis":"proyek","nama":"Jalan Tol Jakarta–Cikampek II","tahun":2030,"sumber":"OSM (target tahun: contoh)","atribut":{"status":"Dalam pembangunan"}}},{"type":"Feature","geometry":{"type":"LineString","coordinates":[[107.205729,-6.42913],[107.204334,-6.429074]]},"properties":{"layer_id":"mesin_waktu","jenis":"proyek","nama":"Jalan Tol Jakarta–Cikampek II","tahun":2030,"sumber":"OSM (target tahun: contoh)","atribut":{"status":"Dalam pembangunan"}}},{"type":"Feature","geometry":{"type":"LineString","coordinates":[[106.93203,-6.085691],[106.923511,-6.085699]]},"properties":{"layer_id":"mesin_waktu","jenis":"proyek","nama":"Jalan Tol Akses Timur Priok","tahun":2027,"sumber":"OSM (target tahun: contoh)","atribut":{"status":"Dalam pembangunan"}}},{"type":"Feature","geometry":{"type":"LineString","coordinates":[[106.940384,-6.097071],[106.940556,-6.097559],[106.940778,-6.097809],[106.941074,-6.097927],[106.941588,-6.098033],[106.943474,-6.09794],[106.943809,-6.097993],[106.944198,-6.098127],[106.944499,-6.098316],[106.944767,-6.098612],[106.944914,-6.098927],[106.94492,-6.105309]]},"properties":{"layer_id":"mesin_waktu","jenis":"proyek","nama":"Jalan Tol Akses Timur Priok","tahun":2027,"sumber":"OSM (target tahun: contoh)","atribut":{"status":"Dalam pembangunan"}}},{"type":"Feature","geometry":{"type":"LineString","coordinates":[[106.944819,-6.109723],[106.944809,-6.10528]]},"properties":{"layer_id":"mesin_waktu","jenis":"proyek","nama":"Jalan Tol Akses Timur Priok","tahun":2027,"sumber":"OSM (target tahun: contoh)","atribut":{"status":"Dalam pembangunan"}}},{"type":"Feature","geometry":{"type":"LineString","coordinates":[[106.94492,-6.105309],[106.944942,-6.109725]]},"properties":{"layer_id":"mesin_waktu","jenis":"proyek","nama":"Jalan Tol Akses Timur Priok","tahun":2027,"sumber":"OSM (target tahun: contoh)","atribut":{"status":"Dalam pembangunan"}}},{"type":"Feature","geometry":{"type":"LineString","coordinates":[[106.944947,-6.110792],[106.944952,-6.116062],[106.945054,-6.116396],[106.94522,-6.116758],[106.945494,-6.117121],[106.945849,-6.117517],[106.946205,-6.117788],[106.951438,-6.120596]]},"properties":{"layer_id":"mesin_waktu","jenis":"proyek","nama":"Jalan Tol Akses Timur Priok","tahun":2027,"sumber":"OSM (target tahun: contoh)","atribut":{"status":"Dalam pembangunan"}}},{"type":"Feature","geometry":{"type":"LineString","coordinates":[[106.944821,-6.110792],[106.944819,-6.109723]]},"properties":{"layer_id":"mesin_waktu","jenis":"proyek","nama":"Jalan Tol Akses Timur Priok","tahun":2027,"sumber":"OSM (target tahun: contoh)","atribut":{"status":"Dalam pembangunan"}}},{"type":"Feature","geometry":{"type":"LineString","coordinates":[[106.944942,-6.109725],[106.944947,-6.110792]]},"properties":{"layer_id":"mesin_waktu","jenis":"proyek","nama":"Jalan Tol Akses Timur Priok","tahun":2027,"sumber":"OSM (target tahun: contoh)","atribut":{"status":"Dalam pembangunan"}}},{"type":"Feature","geometry":{"type":"LineString","coordinates":[[106.951391,-6.120702],[106.946141,-6.117882],[106.945766,-6.117598],[106.945397,-6.117188],[106.945114,-6.116813],[106.94494,-6.116442],[106.944827,-6.116064],[106.944821,-6.110792]]},"properties":{"layer_id":"mesin_waktu","jenis":"proyek","nama":"Jalan Tol Akses Timur Priok","tahun":2027,"sumber":"OSM (target tahun: contoh)","atribut":{"status":"Dalam pembangunan"}}},{"type":"Feature","geometry":{"type":"LineString","coordinates":[[106.944809,-6.10528],[106.944791,-6.098945],[106.944661,-6.098668],[106.944416,-6.098398],[106.944142,-6.098225],[106.943776,-6.0981],[106.943462,-6.09805],[106.941573,-6.098143],[106.941035,-6.098032],[106.940703,-6.097899],[106.940445,-6.097609],[106.940266,-6.097099]]},"properties":{"layer_id":"mesin_waktu","jenis":"proyek","nama":"Jalan Tol Akses Timur Priok","tahun":2027,"sumber":"OSM (target tahun: contoh)","atribut":{"status":"Dalam pembangunan"}}},{"type":"Feature","geometry":{"type":"LineString","coordinates":[[106.923511,-6.085578],[106.933435,-6.085552],[106.933864,-6.08561],[106.934497,-6.085775],[106.935355,-6.086053],[106.93616,-6.086442],[106.936744,-6.086789],[106.937485,-6.087338],[106.937984,-6.087888],[106.938429,-6.088475],[106.938858,-6.089157],[106.939255,-6.090011],[106.939491,-6.09064],[106.939647,-6.091558],[106.939845,-6.093766],[106.940199,-6.096222],[106.940384,-6.097071]]},"properties":{"layer_id":"mesin_waktu","jenis":"proyek","nama":"Jalan Tol Akses Timur Priok","tahun":2027,"sumber":"OSM (target tahun: contoh)","atribut":{"status":"Dalam pembangunan"}}},{"type":"Feature","geometry":{"type":"LineString","coordinates":[[106.940266,-6.097099],[106.940078,-6.096233],[106.939724,-6.093777],[106.939526,-6.091573],[106.939373,-6.090672],[106.939142,-6.090058],[106.93875,-6.089215],[106.938328,-6.088543],[106.937889,-6.087965],[106.937402,-6.087428],[106.936677,-6.08689],[106.936102,-6.086549],[106.935309,-6.086166],[106.934462,-6.085892],[106.93384,-6.085729],[106.933427,-6.085673],[106.93203,-6.085691]]},"properties":{"layer_id":"mesin_waktu","jenis":"proyek","nama":"Jalan Tol Akses Timur Priok","tahun":2027,"sumber":"OSM (target tahun: contoh)","atribut":{"status":"Dalam pembangunan"}}},{"type":"Feature","geometry":{"type":"LineString","coordinates":[[107.069874,-6.37548],[107.078909,-6.383166]]},"properties":{"layer_id":"mesin_waktu","jenis":"proyek","nama":"Jalan Tol Jakarta–Cikampek II","tahun":2030,"sumber":"OSM (target tahun: contoh)","atribut":{"status":"Dalam pembangunan"}}},{"type":"Feature","geometry":{"type":"LineString","coordinates":[[107.069299,-6.374993],[107.069874,-6.37548]]},"properties":{"layer_id":"mesin_waktu","jenis":"proyek","nama":"Jalan Tol Jakarta–Cikampek II","tahun":2030,"sumber":"OSM (target tahun: contoh)","atribut":{"status":"Dalam pembangunan"}}},{"type":"Feature","geometry":{"type":"LineString","coordinates":[[107.069841,-6.375675],[107.069257,-6.375189]]},"properties":{"layer_id":"mesin_waktu","jenis":"proyek","nama":"Jalan Tol Jakarta–Cikampek II","tahun":2030,"sumber":"OSM (target tahun: contoh)","atribut":{"status":"Dalam pembangunan"}}},{"type":"Feature","geometry":{"type":"LineString","coordinates":[[107.078835,-6.383267],[107.074183,-6.379288],[107.069841,-6.375675]]},"properties":{"layer_id":"mesin_waktu","jenis":"proyek","nama":"Jalan Tol Jakarta–Cikampek II","tahun":2030,"sumber":"OSM (target tahun: contoh)","atribut":{"status":"Dalam pembangunan"}}},{"type":"Feature","geometry":{"type":"LineString","coordinates":[[107.142728,-6.422222],[107.141928,-6.422167]]},"properties":{"layer_id":"mesin_waktu","jenis":"proyek","nama":"Jalan Tol Jakarta–Cikampek II","tahun":2030,"sumber":"OSM (target tahun: contoh)","atribut":{"status":"Dalam pembangunan"}}},{"type":"Feature","geometry":{"type":"LineString","coordinates":[[107.143787,-6.422294],[107.142728,-6.422222]]},"properties":{"layer_id":"mesin_waktu","jenis":"proyek","nama":"Jalan Tol Jakarta–Cikampek II","tahun":2030,"sumber":"OSM (target tahun: contoh)","atribut":{"status":"Dalam pembangunan"}}},{"type":"Feature","geometry":{"type":"LineString","coordinates":[[107.144618,-6.42235],[107.143787,-6.422294]]},"properties":{"layer_id":"mesin_waktu","jenis":"proyek","nama":"Jalan Tol Jakarta–Cikampek II","tahun":2030,"sumber":"OSM (target tahun: contoh)","atribut":{"status":"Dalam pembangunan"}}},{"type":"Feature","geometry":{"type":"LineString","coordinates":[[107.147538,-6.422549],[107.144618,-6.42235]]},"properties":{"layer_id":"mesin_waktu","jenis":"proyek","nama":"Jalan Tol Jakarta–Cikampek II","tahun":2030,"sumber":"OSM (target tahun: contoh)","atribut":{"status":"Dalam pembangunan"}}},{"type":"Feature","geometry":{"type":"LineString","coordinates":[[107.147954,-6.422577],[107.147538,-6.422549]]},"properties":{"layer_id":"mesin_waktu","jenis":"proyek","nama":"Jalan Tol Jakarta–Cikampek II","tahun":2030,"sumber":"OSM (target tahun: contoh)","atribut":{"status":"Dalam pembangunan"}}},{"type":"Feature","geometry":{"type":"LineString","coordinates":[[107.153214,-6.422935],[107.147954,-6.422577]]},"properties":{"layer_id":"mesin_waktu","jenis":"proyek","nama":"Jalan Tol Jakarta–Cikampek II","tahun":2030,"sumber":"OSM (target tahun: contoh)","atribut":{"status":"Dalam pembangunan"}}},{"type":"Feature","geometry":{"type":"LineString","coordinates":[[107.147964,-6.422447],[107.153186,-6.422799]]},"properties":{"layer_id":"mesin_waktu","jenis":"proyek","nama":"Jalan Tol Jakarta–Cikampek II","tahun":2030,"sumber":"OSM (target tahun: contoh)","atribut":{"status":"Dalam pembangunan"}}},{"type":"Feature","geometry":{"type":"LineString","coordinates":[[107.147546,-6.422419],[107.147964,-6.422447]]},"properties":{"layer_id":"mesin_waktu","jenis":"proyek","nama":"Jalan Tol Jakarta–Cikampek II","tahun":2030,"sumber":"OSM (target tahun: contoh)","atribut":{"status":"Dalam pembangunan"}}},{"type":"Feature","geometry":{"type":"LineString","coordinates":[[107.144627,-6.422223],[107.147546,-6.422419]]},"properties":{"layer_id":"mesin_waktu","jenis":"proyek","nama":"Jalan Tol Jakarta–Cikampek II","tahun":2030,"sumber":"OSM (target tahun: contoh)","atribut":{"status":"Dalam pembangunan"}}},{"type":"Feature","geometry":{"type":"LineString","coordinates":[[107.143795,-6.422167],[107.144627,-6.422223]]},"properties":{"layer_id":"mesin_waktu","jenis":"proyek","nama":"Jalan Tol Jakarta–Cikampek II","tahun":2030,"sumber":"OSM (target tahun: contoh)","atribut":{"status":"Dalam pembangunan"}}},{"type":"Feature","geometry":{"type":"LineString","coordinates":[[107.142825,-6.422101],[107.143795,-6.422167]]},"properties":{"layer_id":"mesin_waktu","jenis":"proyek","nama":"Jalan Tol Jakarta–Cikampek II","tahun":2030,"sumber":"OSM (target tahun: contoh)","atribut":{"status":"Dalam pembangunan"}}},{"type":"Feature","geometry":{"type":"LineString","coordinates":[[107.142022,-6.422047],[107.142825,-6.422101]]},"properties":{"layer_id":"mesin_waktu","jenis":"proyek","nama":"Jalan Tol Jakarta–Cikampek II","tahun":2030,"sumber":"OSM (target tahun: contoh)","atribut":{"status":"Dalam pembangunan"}}},{"type":"Feature","geometry":{"type":"LineString","coordinates":[[107.099307,-6.397511],[107.099841,-6.398021],[107.111365,-6.410546]]},"properties":{"layer_id":"mesin_waktu","jenis":"proyek","nama":"Jalan Tol Jakarta–Cikampek II","tahun":2030,"sumber":"OSM (target tahun: contoh)","atribut":{"status":"Dalam pembangunan"}}},{"type":"Feature","geometry":{"type":"LineString","coordinates":[[107.099054,-6.397255],[107.099307,-6.397511]]},"properties":{"layer_id":"mesin_waktu","jenis":"proyek","nama":"Jalan Tol Jakarta–Cikampek II","tahun":2030,"sumber":"OSM (target tahun: contoh)","atribut":{"status":"Dalam pembangunan"}}},{"type":"Feature","geometry":{"type":"LineString","coordinates":[[107.099215,-6.397635],[107.098936,-6.397374]]},"properties":{"layer_id":"mesin_waktu","jenis":"proyek","nama":"Jalan Tol Jakarta–Cikampek II","tahun":2030,"sumber":"OSM (target tahun: contoh)","atribut":{"status":"Dalam pembangunan"}}},{"type":"Feature","geometry":{"type":"LineString","coordinates":[[107.111198,-6.4106],[107.110197,-6.409461],[107.101043,-6.399511],[107.099741,-6.398118],[107.099215,-6.397635]]},"properties":{"layer_id":"mesin_waktu","jenis":"proyek","nama":"Jalan Tol Jakarta–Cikampek II","tahun":2030,"sumber":"OSM (target tahun: contoh)","atribut":{"status":"Dalam pembangunan"}}},{"type":"Feature","geometry":{"type":"LineString","coordinates":[[106.848964,-6.208908],[106.848484,-6.2081]]},"properties":{"layer_id":"mesin_waktu","jenis":"proyek","nama":"Jalur Kereta Api Manggarai–Jatinegara","tahun":2029,"sumber":"OSM (target tahun: contoh)","atribut":{"status":"Dalam pembangunan"}}},{"type":"Feature","geometry":{"type":"LineString","coordinates":[[106.848887,-6.208617],[106.848545,-6.208071]]},"properties":{"layer_id":"mesin_waktu","jenis":"proyek","nama":"Jalur Kereta Api Manggarai–Jatinegara","tahun":2029,"sumber":"OSM (target tahun: contoh)","atribut":{"status":"Dalam pembangunan"}}},{"type":"Feature","geometry":{"type":"LineString","coordinates":[[106.8077,-6.130754],[106.810504,-6.130109],[106.813339,-6.129413],[106.813783,-6.129381],[106.814374,-6.129408],[106.81534,-6.129563],[106.815876,-6.129772],[106.818397,-6.1313]]},"properties":{"layer_id":"mesin_waktu","jenis":"proyek","nama":"Jalan Tol Pelabuhan II","tahun":2027,"sumber":"OSM (target tahun: contoh)","atribut":{"status":"Dalam pembangunan"}}},{"type":"Feature","geometry":{"type":"LineString","coordinates":[[106.843287,-6.127679],[106.845037,-6.127162],[106.848315,-6.126421],[106.849724,-6.126047],[106.851943,-6.125379],[106.853501,-6.12487],[106.854941,-6.124257],[106.860345,-6.121696],[106.86078,-6.121647],[106.861156,-6.12169],[106.862841,-6.122119],[106.866113,-6.123195]]},"properties":{"layer_id":"mesin_waktu","jenis":"proyek","nama":"Jalan Tol Pelabuhan II","tahun":2027,"sumber":"OSM (target tahun: contoh)","atribut":{"status":"Dalam pembangunan"}}}]}